[{"OBJECT_NAME":"ONEWEB-0035","OBJECT_ID":"2020-008N","EPOCH":"2025-10-10T20:27:50.350176","MEAN_MOTION":13.10368671,"ECCENTRICITY":0.0001675,"INCLINATION":87.8745,"RA_OF_ASC_NODE":85.9988,"ARG_OF_PERICENTER":96.3357,"MEAN_ANOMALY":263.7962,"EPHEMERIS_TYPE":0,"CLASSIFICATION_TYPE":"U","NORAD_CAT_ID":45143,"ELEMENT_SET_NO":999,"REV_AT_EPOCH":27528,"BSTAR":-0.00077807137,"MEAN_MOTION_DOT":-2.59e-6,"MEAN_MOTION_DDOT":0},{"OBJECT_NAME":"ONEWEB-0036","OBJECT_ID":"2020-008P","EPOCH":"2025-10-11T03:33:19.885248","MEAN_MOTION":13.10369435,"ECCENTRICITY":0.00015001,"INCLINATION":87.876,"RA_OF_ASC_NODE":85.8917,"ARG_OF_PERICENTER":82.7489,"MEAN_ANOMALY":277.3809,"EPHEMERIS_TYPE":0,"CLASSIFICATION_TYPE":"U","NORAD_CAT_ID":45144,"ELEMENT_SET_NO":999,"REV_AT_EPOCH":27575,"BSTAR":0.00093866003,"MEAN_MOTION_DOT":3.4e-6,"MEAN_MOTION_DDOT":0},{"OBJECT_NAME":"ONEWEB-0038","OBJECT_ID":"2020-008Q","EPOCH":"2025-10-10T19:56:40.756992","MEAN_MOTION":13.114155,"ECCENTRICITY":0.00013822,"INCLINATION":87.8816,"RA_OF_ASC_NODE":70.7224,"ARG_OF_PERICENTER":169.6001,"MEAN_ANOMALY":190.5156,"EPHEMERIS_TYPE":0,"CLASSIFICATION_TYPE":"U","NORAD_CAT_ID":45145,"ELEMENT_SET_NO":999,"REV_AT_EPOCH":27764,"BSTAR":-0.0022539579,"MEAN_MOTION_DOT":-7.86e-6,"MEAN_MOTION_DDOT":0},{"OBJECT_NAME":"ONEWEB-0039","OBJECT_ID":"2020-008R","EPOCH":"2025-10-11T04:58:12.732384","MEAN_MOTION":13.10374388,"ECCENTRICITY":0.00011395,"INCLINATION":87.8755,"RA_OF_ASC_NODE":85.8955,"ARG_OF_PERICENTER":79.5813,"MEAN_ANOMALY":280.5443,"EPHEMERIS_TYPE":0,"CLASSIFICATION_TYPE":"U","NORAD_CAT_ID":45146,"ELEMENT_SET_NO":999,"REV_AT_EPOCH":27555,"BSTAR":0.0018080186,"MEAN_MOTION_DOT":6.44e-6,"MEAN_MOTION_DDOT":0},{"OBJECT_NAME":"ONEWEB-0040","OBJECT_ID":"2020-008S","EPOCH":"2025-10-11T04:48:37.745568","MEAN_MOTION":13.10374301,"ECCENTRICITY":0.00015972,"INCLINATION":87.8752,"RA_OF_ASC_NODE":85.9266,"ARG_OF_PERICENTER":91.6096,"MEAN_ANOMALY":268.5214,"EPHEMERIS_TYPE":0,"CLASSIFICATION_TYPE":"U","NORAD_CAT_ID":45147,"ELEMENT_SET_NO":999,"REV_AT_EPOCH":27525,"BSTAR":0.0011907517,"MEAN_MOTION_DOT":4.28e-6,"MEAN_MOTION_DDOT":0},{"OBJECT_NAME":"ONEWEB-0043","OBJECT_ID":"2020-008U","EPOCH":"2025-10-10T21:31:11.743680","MEAN_MOTION":13.10376064,"ECCENTRICITY":0.0001454,"INCLINATION":87.8751,"RA_OF_ASC_NODE":85.9693,"ARG_OF_PERICENTER":74.8989,"MEAN_ANOMALY":285.2299,"EPHEMERIS_TYPE":0,"CLASSIFICATION_TYPE":"U","NORAD_CAT_ID":45149,"ELEMENT_SET_NO":999,"REV_AT_EPOCH":27553,"BSTAR":0.0014836,"MEAN_MOTION_DOT":5.31e-6,"MEAN_MOTION_DDOT":0},{"OBJECT_NAME":"ONEWEB-0044","OBJECT_ID":"2020-008V","EPOCH":"2025-10-11T03:41:41.397504","MEAN_MOTION":13.10369222,"ECCENTRICITY":0.00014808,"INCLINATION":87.8744,"RA_OF_ASC_NODE":85.9089,"ARG_OF_PERICENTER":83.9854,"MEAN_ANOMALY":276.1442,"EPHEMERIS_TYPE":0,"CLASSIFICATION_TYPE":"U","NORAD_CAT_ID":45150,"ELEMENT_SET_NO":999,"REV_AT_EPOCH":27586,"BSTAR":0.00021491593,"MEAN_MOTION_DOT":8.8e-7,"MEAN_MOTION_DDOT":0},{"OBJECT_NAME":"ONEWEB-0045","OBJECT_ID":"2020-008W","EPOCH":"2025-10-11T03:08:36.031776","MEAN_MOTION":13.11415575,"ECCENTRICITY":0.00014665,"INCLINATION":87.8824,"RA_OF_ASC_NODE":70.639,"ARG_OF_PERICENTER":96.1066,"MEAN_ANOMALY":264.0229,"EPHEMERIS_TYPE":0,"CLASSIFICATION_TYPE":"U","NORAD_CAT_ID":45151,"ELEMENT_SET_NO":999,"REV_AT_EPOCH":27776,"BSTAR":-0.001397924,"MEAN_MOTION_DOT":-4.83e-6,"MEAN_MOTION_DDOT":0},{"OBJECT_NAME":"ONEWEB-0047","OBJECT_ID":"2020-008X","EPOCH":"2025-10-11T03:32:07.956384","MEAN_MOTION":13.10374869,"ECCENTRICITY":0.00017605,"INCLINATION":87.873,"RA_OF_ASC_NODE":85.9201,"ARG_OF_PERICENTER":85.9443,"MEAN_ANOMALY":274.1886,"EPHEMERIS_TYPE":0,"CLASSIFICATION_TYPE":"U","NORAD_CAT_ID":45152,"ELEMENT_SET_NO":999,"REV_AT_EPOCH":27558,"BSTAR":0.0032478076,"MEAN_MOTION_DOT":1.147e-5,"MEAN_MOTION_DDOT":0},{"OBJECT_NAME":"ONEWEB-0048","OBJECT_ID":"2020-008Y","EPOCH":"2025-10-11T03:24:58.810176","MEAN_MOTION":13.10374522,"ECCENTRICITY":0.00016324,"INCLINATION":87.8752,"RA_OF_ASC_NODE":85.947,"ARG_OF_PERICENTER":91.8492,"MEAN_ANOMALY":268.2822,"EPHEMERIS_TYPE":0,"CLASSIFICATION_TYPE":"U","NORAD_CAT_ID":45153,"ELEMENT_SET_NO":999,"REV_AT_EPOCH":27519,"BSTAR":0.0015508209,"MEAN_MOTION_DOT":5.54e-6,"MEAN_MOTION_DDOT":0},{"OBJECT_NAME":"ONEWEB-0049","OBJECT_ID":"2020-008Z","EPOCH":"2025-10-11T03:28:33.403584","MEAN_MOTION":13.10370642,"ECCENTRICITY":0.00018406,"INCLINATION":87.8747,"RA_OF_ASC_NODE":85.938,"ARG_OF_PERICENTER":77.8167,"MEAN_ANOMALY":282.3166,"EPHEMERIS_TYPE":0,"CLASSIFICATION_TYPE":"U","NORAD_CAT_ID":45154,"ELEMENT_SET_NO":999,"REV_AT_EPOCH":27541,"BSTAR":0.0011083392,"MEAN_MOTION_DOT":4.0e-6,"MEAN_MOTION_DDOT":0},{"OBJECT_NAME":"ONEWEB-0051","OBJECT_ID":"2020-008AA","EPOCH":"2025-10-11T03:06:10.446048","MEAN_MOTION":13.11416526,"ECCENTRICITY":0.00017255,"INCLINATION":87.8801,"RA_OF_ASC_NODE":70.6725,"ARG_OF_PERICENTER":97.4078,"MEAN_ANOMALY":262.7246,"EPHEMERIS_TYPE":0,"CLASSIFICATION_TYPE":"U","NORAD_CAT_ID":45155,"ELEMENT_SET_NO":999,"REV_AT_EPOCH":27844,"BSTAR":-0.0018579375,"MEAN_MOTION_DOT":-6.46e-6,"MEAN_MOTION_DDOT":0},{"OBJECT_NAME":"ONEWEB-0052","OBJECT_ID":"2020-008AB","EPOCH":"2025-10-11T05:11:20.702976","MEAN_MOTION":13.1037091,"ECCENTRICITY":0.00019265,"INCLINATION":87.8755,"RA_OF_ASC_NODE":85.8773,"ARG_OF_PERICENTER":76.1486,"MEAN_ANOMALY":283.9856,"EPHEMERIS_TYPE":0,"CLASSIFICATION_TYPE":"U","NORAD_CAT_ID":45156,"ELEMENT_SET_NO":999,"REV_AT_EPOCH":27533,"BSTAR":0.0012834286,"MEAN_MOTION_DOT":4.61e-6,"MEAN_MOTION_DDOT":0},{"OBJECT_NAME":"ONEWEB-0053","OBJECT_ID":"2020-008AC","EPOCH":"2025-10-11T04:46:14.241216","MEAN_MOTION":13.10375263,"ECCENTRICITY":0.00013222,"INCLINATION":87.8749,"RA_OF_ASC_NODE":85.9322,"ARG_OF_PERICENTER":92.4231,"MEAN_ANOMALY":267.7047,"EPHEMERIS_TYPE":0,"CLASSIFICATION_TYPE":"U","NORAD_CAT_ID":45157,"ELEMENT_SET_NO":999,"REV_AT_EPOCH":27530,"BSTAR":0.00069573412,"MEAN_MOTION_DOT":2.56e-6,"MEAN_MOTION_DDOT":0},{"OBJECT_NAME":"ONEWEB-0054","OBJECT_ID":"2020-008AD","EPOCH":"2025-10-10T22:16:36.093792","MEAN_MOTION":13.10369658,"ECCENTRICITY":0.0001674,"INCLINATION":87.8744,"RA_OF_ASC_NODE":85.9591,"ARG_OF_PERICENTER":91.0545,"MEAN_ANOMALY":269.0774,"EPHEMERIS_TYPE":0,"CLASSIFICATION_TYPE":"U","NORAD_CAT_ID":45158,"ELEMENT_SET_NO":999,"REV_AT_EPOCH":27538,"BSTAR":-0.00064169,"MEAN_MOTION_DOT":-2.11e-6,"MEAN_MOTION_DDOT":0},{"OBJECT_NAME":"ONEWEB-0056","OBJECT_ID":"2020-008AE","EPOCH":"2025-10-11T05:08:59.642880","MEAN_MOTION":13.1037487,"ECCENTRICITY":0.00017959,"INCLINATION":87.8745,"RA_OF_ASC_NODE":85.8998,"ARG_OF_PERICENTER":89.3627,"MEAN_ANOMALY":270.7707,"EPHEMERIS_TYPE":0,"CLASSIFICATION_TYPE":"U","NORAD_CAT_ID":45159,"ELEMENT_SET_NO":999,"REV_AT_EPOCH":27557,"BSTAR":0.0018143714,"MEAN_MOTION_DOT":6.46e-6,"MEAN_MOTION_DDOT":0},{"OBJECT_NAME":"ONEWEB-0057","OBJECT_ID":"2020-008AF","EPOCH":"2025-10-11T03:29:45.129408","MEAN_MOTION":13.10369874,"ECCENTRICITY":0.00015382,"INCLINATION":87.875,"RA_OF_ASC_NODE":85.9268,"ARG_OF_PERICENTER":85.7318,"MEAN_ANOMALY":274.3985,"EPHEMERIS_TYPE":0,"CLASSIFICATION_TYPE":"U","NORAD_CAT_ID":45160,"ELEMENT_SET_NO":999,"REV_AT_EPOCH":27573,"BSTAR":0.0010722603,"MEAN_MOTION_DOT":3.87e-6,"MEAN_MOTION_DDOT":0}]
