ONEWEB-0035             
1 45143U 20008N   25283.85266609 -.00000259  00000+0 -77807-3 0  9998
2 45143  87.8745  85.9988 0001675  96.3357 263.7962 13.10368671275282
ONEWEB-0036             
1 45144U 20008P   25284.14814682  .00000340  00000+0  93866-3 0  9994
2 45144  87.8760  85.8917 0001500  82.7489 277.3809 13.10369435275755
ONEWEB-0038             
1 45145U 20008Q   25283.83102728 -.00000786  00000+0 -22540-2 0  9997
2 45145  87.8816  70.7224 0001382 169.6001 190.5156 13.11415500277642
ONEWEB-0039             
1 45146U 20008R   25284.20709181  .00000644  00000+0  18080-2 0  9991
2 45146  87.8755  85.8955 0001139  79.5813 280.5443 13.10374388275557
ONEWEB-0040             
1 45147U 20008S   25284.20043687  .00000428  00000+0  11908-2 0  9996
2 45147  87.8752  85.9266 0001597  91.6096 268.5214 13.10374301275251
ONEWEB-0043             
1 45149U 20008U   25283.89666370  .00000531  00000+0  14836-2 0  9990
2 45149  87.8751  85.9693 0001454  74.8989 285.2299 13.10376064275530
ONEWEB-0044             
1 45150U 20008V   25284.15395136  .00000088  00000+0  21492-3 0  9995
2 45150  87.8744  85.9089 0001480  83.9854 276.1442 13.10369222275867
ONEWEB-0045             
1 45151U 20008W   25284.13097259 -.00000483  00000+0 -13979-2 0  9990
2 45151  87.8824  70.6390 0001466  96.1066 264.0229 13.11415575277762
ONEWEB-0047             
1 45152U 20008X   25284.14731431  .00001147  00000+0  32478-2 0  9990
2 45152  87.8730  85.9201 0001760  85.9443 274.1886 13.10374869275589
ONEWEB-0048             
1 45153U 20008Y   25284.14234734  .00000554  00000+0  15508-2 0  9991
2 45153  87.8752  85.9470 0001632  91.8492 268.2822 13.10374522275197
ONEWEB-0049             
1 45154U 20008Z   25284.14483106  .00000400  00000+0  11083-2 0  9995
2 45154  87.8747  85.9380 0001840  77.8167 282.3166 13.10370642275418
ONEWEB-0051             
1 45155U 20008AA  25284.12928757 -.00000646  00000+0 -18579-2 0  9991
2 45155  87.8801  70.6725 0001725  97.4078 262.7246 13.11416526278445
ONEWEB-0052             
1 45156U 20008AB  25284.21621184  .00000461  00000+0  12834-2 0  9997
2 45156  87.8755  85.8773 0001926  76.1486 283.9856 13.10370910275337
ONEWEB-0053             
1 45157U 20008AC  25284.19877594  .00000256  00000+0  69573-3 0  9998
2 45157  87.8749  85.9322 0001322  92.4231 267.7047 13.10375263275306
ONEWEB-0054             
1 45158U 20008AD  25283.92819553 -.00000211  00000+0 -64169-3 0  9999
2 45158  87.8744  85.9591 0001674  91.0545 269.0774 13.10369658275384
ONEWEB-0056             
1 45159U 20008AE  25284.21457920  .00000646  00000+0  18144-2 0  9990
2 45159  87.8745  85.8998 0001795  89.3627 270.7707 13.10374870275579
ONEWEB-0057             
1 45160U 20008AF  25284.14566122  .00000387  00000+0  10723-2 0  9996
2 45160  87.8750  85.9268 0001538  85.7318 274.3985 13.10369874275734
